OBJECT_NAME,OBJECT_ID,EPOCH,MEAN_MOTION,ECCENTRICITY,INCLINATION,RA_OF_ASC_NODE,ARG_OF_PERICENTER,MEAN_ANOMALY,EPHEMERIS_TYPE,CLASSIFICATION_TYPE,NORAD_CAT_ID,ELEMENT_SET_NO,REV_AT_EPOCH,BSTAR,MEAN_MOTION_DOT,MEAN_MOTION_DDOT
BEIDOU-2 IGSO-5 (C10),2011-073A,2026-07-02T17:30:18.330912,1.00270596,.01145273,47.6496,271.3544,222.0502,141.5350,0,U,37948,999,5329,0,-.128E-5,0
LUCH 5A (SDCM/PRN 140),2011-074B,2026-07-18T12:54:19.185984,1.00273792,.0002741,8.8316,73.3451,60.5783,163.0027,0,U,37951,999,5336,0,-.6E-6,0
BEIDOU-2 G5 (C05),2012-008A,2026-07-18T20:36:46.958976,1.00271349,.0007284,3.6511,69.4992,269.1260,325.8751,0,U,38091,999,5268,0,.5E-6,0
BEIDOU-2 M3 (C11),2012-018A,2026-07-17T19:05:16.894752,1.86229645,.00210447,55.7296,303.8435,272.1726,87.6188,0,U,38250,999,9651,0,-.87E-6,0
BEIDOU-2 M4 (C12),2012-018B,2026-07-18T06:21:05.165568,1.86229286,.0012176,55.6290,303.0389,272.1376,87.7565,0,U,38251,999,9652,0,-.89E-6,0
SES-5 (EGNOS/PRN 136),2012-036A,2026-07-18T08:06:52.202016,1.00271541,.00019592,0.0443,322.9360,155.1766,304.7160,0,U,38652,999,4476,0,.26E-6,0
BEIDOU-2 M6 (C14),2012-050B,2026-07-17T23:22:51.951360,1.86230950,.00128115,56.5713,61.8766,1.9822,358.0915,0,U,38775,999,9388,0,-.62E-6,0
GSAT-10 (GAGAN/PRN 128),2012-051B,2026-07-18T20:59:34.684800,1.00272775,.000752,0.0811,264.2462,191.0157,239.3053,0,U,38779,999,5041,0,-.171E-5,0
GPS BIIF-3  (PRN 24),2012-053A,2026-07-18T17:25:13.675008,2.00568003,.0182235,53.5900,142.3072,66.2866,295.5888,0,U,38833,999,10007,0,.25E-6,0
GSAT0103 (GALILEO-FM3),2012-055A,2026-07-16T05:14:38.805216,1.70473424,.0003594,55.8227,100.7486,314.9576,45.0469,0,U,38857,999,8550,0,-.26E-6,0
BEIDOU-2 G6 (C02),2012-059A,2026-07-18T21:02:20.634144,1.00273161,.0008827,4.5000,73.1804,327.5469,295.5388,0,U,38953,999,5022,0,-.184E-5,0
LUCH 5B (SDCM/PRN 125),2012-061A,2026-07-18T08:01:00.263712,1.00270293,.00038352,10.5496,49.5701,147.0481,203.4789,0,U,38977,999,4991,0,-.149E-5,0
COSMOS 2485 (747),2013-019A,2026-07-17T09:53:07.452384,2.13103096,.00225849,65.4363,72.5906,230.9016,128.9717,0,U,39155,999,10292,0,-.24E-6,0
GPS BIIF-4  (PRN 27),2013-023A,2026-07-18T02:16:55.693920,2.00563355,.01413858,54.4806,267.7131,51.1121,310.2133,0,U,39166,999,9650,0,-.33E-6,0
IRNSS-1A,2013-034A,2026-07-10T17:17:25.712736,1.00281941,.0017567,35.7704,63.5328,183.4462,356.2994,0,U,39199,999,4760,0,.47E-6,0
GPS BIIF-5  (PRN 30),2014-008A,2026-07-18T02:19:34.999968,2.00561763,.00840629,53.6580,148.0590,231.5632,127.6506,0,U,39533,999,9030,0,.29E-6,0
ASTRA 5B (EGNOS/PRN 123),2014-011B,2026-07-18T20:03:38.695392,1.00270161,.0002026,0.0689,306.2731,179.1336,135.5839,0,U,39617,999,4498,0,.13E-5,0
COSMOS 2492 (754),2014-012A,2026-07-16T10:22:23.706048,2.13103163,.00102943,65.2787,312.9423,317.3344,42.6017,0,U,39620,999,9586,0,-.64E-6,0
IRNSS-1B,2014-017A,2026-07-18T16:54:18.489024,1.00276854,.0022199,28.8702,239.8599,192.0035,173.4078,0,U,39635,999,4511,0,.121E-5,0
LUCH 5V (SDCM/PRN 141),2014-023A,2026-07-18T20:42:10.302336,1.00272383,.0002105,5.2094,69.4150,83.3325,189.1903,0,U,39727,999,4467,0,-.277E-5,0
GPS BIIF-6  (PRN 06),2014-026A,2026-07-18T20:55:13.319616,2.00558684,.0038161,56.4811,330.2843,325.6855,34.0716,0,U,39741,999,8917,0,-.103E-5,0
COSMOS 2500 (755),2014-032A,2026-07-18T11:29:13.206048,2.13105734,.0008388,65.2124,312.6171,190.9588,169.0438,0,U,40001,999,9412,0,-.73E-6,0
GPS BIIF-7  (PRN 09),2014-045A,2026-07-17T11:13:19.050240,2.00560402,.00345283,55.3728,87.2585,118.4118,241.9927,0,U,40105,999,8668,0,-.3E-6,0
GSAT0201 (GALILEO 5),2014-050A,2026-07-18T16:16:24.701088,1.85519739,.1678965,48.8408,272.1432,180.6285,179.1839,0,U,40128,999,7890,0,-.61E-6,0
GSAT0202 (GALILEO 6),2014-050B,2026-07-17T20:31:57.990720,1.85520332,.16801746,48.8588,271.2629,181.3093,178.2437,0,U,40129,999,8105,0,-.54E-6,0
IRNSS-1C,2014-061A,2026-07-18T17:02:30.009120,1.00271766,.0021993,6.5950,88.3313,5.8558,180.9989,0,U,40269,999,4300,0,-.172E-5,0
GPS BIIF-8  (PRN 03),2014-068A,2026-07-18T07:59:43.239840,2.00553485,.0067425,57.0091,29.7559,72.4144,288.3587,0,U,40294,999,8583,0,-.85E-6,0
COSMOS 2501 (702K),2014-075A,2026-07-18T06:31:19.719264,2.13101246,.002268,63.6183,189.2960,212.6285,147.2256,0,U,40315,999,9051,0,.62E-6,0
GPS BIIF-9  (PRN 26),2015-013A,2026-07-17T23:25:29.712576,2.00549510,.01104693,53.1659,202.9042,40.4150,320.4084,0,U,40534,999,8244,0,.44E-6,0
GSAT0203 (GALILEO 7),2015-017A,2026-07-17T03:05:03.049728,1.70476213,.0002702,56.7761,340.7804,254.9804,104.9775,0,U,40544,999,6971,0,-.104E-5,0
GSAT0204 (GALILEO 8),2015-017B,2026-07-17T23:18:11.737152,1.70475755,.000288,56.7834,340.7762,234.5302,125.4325,0,U,40545,999,3277,0,-.105E-5,0
